IRIDIUM 57              
1 25273U 98019B   24360.56880262  .00000874  00000+0  29630-3 0  9999
2 25273  86.3969 217.9342 0001934  84.9954 275.1463 14.35651658399874
IRIDIUM 63              
1 25286U 98021B   24360.51450080  .00001318  00000+0  44481-3 0  9997
2 25286  86.4003 154.9488 0002146  92.8824 267.2619 14.36268561398916
IRIDIUM 69              
1 25319U 98026A   24360.57002286  .00001257  00000+0  38840-3 0  9990
2 25319  86.4000 168.7212 0001268 178.5431 181.5772 14.40609229398067
IRIDIUM 71              
1 25320U 98026B   24360.53250562  .00001349  00000+0  41523-3 0  9994
2 25320  86.3997 163.4654 0001080   8.6280 351.4938 14.40850055398586
IRIDIUM 73              
1 25344U 98032C   24360.40894507  .00001962  00000+0  48855-3 0  9992
2 25344  86.4428 120.6232 0001670 110.2323 249.9062 14.51272546405350
IRIDIUM 82              
1 25467U 98051A   24360.61278364  .00031391  00000+0  12234-2 0  9999
2 25467  86.3734 194.2694 0103805 230.8050 128.3942 15.20856349397479
